*******************************************************************************
 Revised: Jan 23, 2020            Rhea  / (Saturn)                          605
                        http://ssd.jpl.nasa.gov/?sat_phys_par
                         http://ssd.jpl.nasa.gov/?sat_elem

 SATELLITE PHYSICAL PROPERTIES:
  Mean Radius (km)        = 764.5  +- 2     Density (g/cm^3)  =  1.233 +- 0.010
  Mass (10^19 kg)         = 230.9           Geometric Albedo  =  0.6
  GM (km^3/s^2)           = 153.94 +- 0.16  V(1,0)            = +0.1

 SATELLITE ORBITAL DATA (mean values referred to local Laplace plane):
  Semi-major axis, a (km) = 527.07(10^3)    Orbital period    = 4.518 d
  Eccentricity, e         = 0.001           Rotational period = Synchronous
  Inclination, i  (deg)   = 0.331
*******************************************************************************
 
 
*******************************************************************************
Ephemeris / WWW_USER Wed Jun 17 13:24:53 2020 Pasadena, USA      / Horizons
*******************************************************************************
Target body name: Rhea (605)                      {source: sat427l_merged_DE438}
Center body name: Solar System Barycenter (0)     {source: DE431mx}
Center-site name: BODY CENTER
*******************************************************************************
Start time      : A.D. 2000-Jun-05 00:00:00.0000 TDB
Stop  time      : A.D. 2040-May-26 00:00:00.0000 TDB
Step-size       : 14400 minutes
*******************************************************************************
Center geodetic : 0.00000000,0.00000000,0.0000000 {E-lon(deg),Lat(deg),Alt(km)}
Center cylindric: 0.00000000,0.00000000,0.0000000 {E-lon(deg),Dxy(km),Dz(km)}
Center radii    : (undefined)                                                  
Output units    : AU-D
Output type     : GEOMETRIC cartesian states
Output format   : 3 (position, velocity, LT, range, range-rate)
Reference frame : Ecliptic of J2000.0
*******************************************************************************
JDTDB
   X     Y     Z
   VX    VY    VZ
   LT    RG    RR
*******************************************************************************
$$SOE
2456120.500000000 = A.D. 2012-Jul-12 00:00:00.0000 TDB 
 X =-8.536963150278277E+00 Y =-4.690227074049567E+00 Z = 4.200886108468931E-01
 VX=-1.622944319558799E-03 VY=-7.224378507738461E-03 VZ= 1.574491635750041E-03
 LT= 5.630891773328009E-02 RG= 9.749586877212799E+00 RR= 4.964355734741922E-03
2456130.500000000 = A.D. 2012-Jul-22 00:00:00.0000 TDB 
 X =-8.514232115636306E+00 Y =-4.742838826875720E+00 Z = 4.220017740866079E-01
 VX= 4.208713118980680E-03 VY=-9.004155087622291E-03 VZ= 1.940887272899715E-03
 LT= 5.634158127069187E-02 RG= 9.755242393399806E+00 RR= 7.883303676112996E-04
2456140.500000000 = A.D. 2012-Aug-01 00:00:00.0000 TDB 
 X =-8.486179141590927E+00 Y =-4.793718063835703E+00 Z = 4.226001815859061E-01
 VX= 7.270506707743656E-03 VY=-4.418225653308649E-03 VZ=-7.103674772966741E-04
 LT= 5.634418799085569E-02 RG= 9.755693733005053E+00 RR=-4.184150998353231E-03
2456150.500000000 = A.D. 2012-Aug-11 00:00:00.0000 TDB 
 X =-8.458658969378552E+00 Y =-4.839623453102323E+00 Z = 4.207752636900914E-01
 VX= 2.857642113716043E-03 VY=-5.270877490759026E-04 VZ=-2.284588028377151E-03
 LT= 5.633659735369305E-02 RG= 9.754379454921761E+00 RR=-2.315084429369495E-03
2456160.500000000 = A.D. 2012-Aug-21 00:00:00.0000 TDB 
 X =-8.436285439744923E+00 Y =-4.884771393584195E+00 Z = 4.191462602984432E-01
 VX=-2.159485647149179E-03 VY=-3.338558691518393E-03 VZ=-3.427589200203234E-04
 LT= 5.635425932949892E-02 RG= 9.757437531234972E+00 RR= 3.523718915436555E-03
2456170.500000000 = A.D. 2012-Aug-31 00:00:00.0000 TDB 
 X =-8.415284908327681E+00 Y =-4.934319184089738E+00 Z = 4.200118148561848E-01
 VX= 2.568454337693953E-05 VY=-8.465178288076601E-03 VZ= 2.101636081126268E-03
 LT= 5.639371067477607E-02 RG= 9.764268319921490E+00 RR= 4.346097369258012E-03
2456180.500000000 = A.D. 2012-Sep-10 00:00:00.0000 TDB 
 X =-8.389360744705989E+00 Y =-4.986365943636609E+00 Z = 4.217871879764365E-01
 VX= 6.064172937031219E-03 VY=-7.967036879852344E-03 VZ= 1.274184054820226E-03
 LT= 5.641801223718432E-02 RG= 9.768476005018075E+00 RR=-1.086202034252615E-03
2456190.500000000 = A.D. 2012-Sep-20 00:00:00.0000 TDB 
 X =-8.359399388350733E+00 Y =-5.034912899234021E+00 Z = 4.214633916606507E-01
 VX= 6.671642521989050E-03 VY=-2.580830070301879E-03 VZ=-1.553625417895970E-03
 LT= 5.641340450221610E-02 RG= 9.767678200439541E+00 RR=-4.446447267474298E-03
2456200.500000000 = A.D. 2012-Sep-30 00:00:00.0000 TDB 
 X =-8.332131807480993E+00 Y =-5.079123530119673E+00 Z = 4.192556046393236E-01
 VX= 9.347217318295790E-04 VY=-6.150334306859573E-04 VZ=-2.007868101254185E-03
 LT= 5.641049354983744E-02 RG= 9.767174184659210E+00 RR=-5.637458444008630E-04
2456210.500000000 = A.D. 2012-Oct-10 00:00:00.0000 TDB 
 X =-8.309709957988382E+00 Y =-5.124622943115032E+00 Z = 4.182729251363714E-01
 VX=-2.218376024231618E-03 VY=-5.091634754967436E-03 VZ= 6.138230470775771E-04
 LT= 5.643718547193683E-02 RG= 9.771795747706477E+00 RR= 4.582936068257105E-03
2456220.500000000 = A.D. 2012-Oct-20 00:00:00.0000 TDB 
 X =-8.286369960484045E+00 Y =-5.174792199707236E+00 Z = 4.197073737931926E-01
 VX= 2.119325912102633E-03 VY=-9.047831747708950E-03 VZ= 2.248670411766434E-03
 LT= 5.647575641431345E-02 RG= 9.778474099356176E+00 RR= 3.088714437851053E-03
2456230.500000000 = A.D. 2012-Oct-30 00:00:00.0000 TDB 
 X =-8.257380652821631E+00 Y =-5.225540932382296E+00 Z = 4.209957049475586E-01
 VX= 7.285515080552735E-03 VY=-6.356428252986346E-03 VZ= 3.744888082352364E-04
 LT= 5.649031222433495E-02 RG= 9.780994359735624E+00 RR=-2.738559709502888E-03
2456240.500000000 = A.D. 2012-Nov-09 00:00:00.0000 TDB 
 X =-8.226321433867643E+00 Y =-5.271623119488489E+00 Z = 4.197751666749188E-01
 VX= 5.330852998225390E-03 VY=-1.138053631646384E-03 VZ=-2.120883178303795E-03
 LT= 5.648167136080989E-02 RG= 9.779498240594590E+00 RR=-3.961779385893019E-03
2456250.500000000 = A.D. 2012-Nov-19 00:00:00.0000 TDB 
 X =-8.199582488312689E+00 Y =-5.314759657404209E+00 Z = 4.175465243496873E-01
 VX=-6.893344004351891E-04 VY=-1.450978441323802E-03 VZ=-1.372898181564020E-03
 LT= 5.648627247225679E-02 RG= 9.780294898345955E+00 RR= 1.307793602448120E-03
2456260.500000000 = A.D. 2012-Nov-29 00:00:00.0000 TDB 
 X =-8.176466487517729E+00 Y =-5.360970309309288E+00 Z = 4.173493062826914E-01
 VX=-1.408168174457224E-03 VY=-6.779472887518001E-03 VZ= 1.455095649630445E-03
 LT= 5.652010509640801E-02 RG= 9.786152835627027E+00 RR= 4.952474861571352E-03
2456270.500000000 = A.D. 2012-Dec-09 00:00:00.0000 TDB 
 X =-8.150263795858532E+00 Y =-5.411250699729195E+00 Z = 4.190552425448390E-01
 VX= 4.306769490091746E-03 VY=-8.853556928793570E-03 VZ= 1.988060024855009E-03
 LT= 5.655410475628151E-02 RG= 9.792039694246871E+00 RR= 1.393031081945798E-03
2456280.500000000 = A.D. 2012-Dec-19 00:00:00.0000 TDB 
 X =-8.118650269502327E+00 Y =-5.460056064570383E+00 Z = 4.195818076438640E-01
 VX= 7.675162738005626E-03 VY=-4.447249530751102E-03 VZ=-5.978419175693238E-04
 LT= 5.655903009359479E-02 RG= 9.792892489966777E+00 RR=-3.909016043219846E-03
2456290.500000000 = A.D. 2012-Dec-29 00:00:00.0000 TDB 
 X =-8.087264365728439E+00 Y =-5.503840767524064E+00 Z = 4.176399237201703E-01
 VX= 3.512805765988082E-03 VY=-3.364820500235289E-04 VZ=-2.310616485780779E-03
 LT= 5.655012035242269E-02 RG= 9.791349816104308E+00 RR=-2.810853608574217E-03
2456300.500000000 = A.D. 2013-Jan-08 00:00:00.0000 TDB 
 X =-8.061000095454848E+00 Y =-5.546570168634942E+00 Z = 4.157441894511971E-01
 VX=-1.698275297692078E-03 VY=-2.867858481884599E-03 VZ=-4.959836030038144E-04
 LT= 5.656382560048442E-02 RG= 9.793722806245670E+00 RR= 3.000939879627538E-03
2456310.500000000 = A.D. 2013-Jan-18 00:00:00.0000 TDB 
 X =-8.036433533333405E+00 Y =-5.593573698754481E+00 Z = 4.163174315481343E-01
 VX= 1.469054917625625E-04 VY=-8.084580558953981E-03 VZ= 2.029495608703172E-03
 LT= 5.660174475941800E-02 RG= 9.800288305090538E+00 RR= 4.580070908284790E-03
2456320.500000000 = A.D. 2013-Jan-28 00:00:00.0000 TDB 
 X =-8.007125502903069E+00 Y =-5.643287275118844E+00 Z = 4.179376357046244E-01
 VX= 6.219294307143739E-03 VY=-7.901832792472672E-03 VZ= 1.365037555930897E-03
 LT= 5.662819058856464E-02 RG= 9.804867258463899E+00 RR=-4.728118104951452E-04
2456330.500000000 = A.D. 2013-Feb-07 00:00:00.0000 TDB 
 X =-7.973571828124320E+00 Y =-5.689701516384276E+00 Z = 4.175522482060532E-01
 VX= 7.184706313631857E-03 VY=-2.568985634960043E-03 VZ=-1.468639725958569E-03
 LT= 5.662509181751638E-02 RG= 9.804330722889006E+00 RR=-4.414808663201097E-03
2456340.500000000 = A.D. 2013-Feb-17 00:00:00.0000 TDB 
 X =-7.942455296544673E+00 Y =-5.731618238806635E+00 Z = 4.151821538719470E-01
 VX= 1.569888507881688E-03 VY=-3.068974538310400E-04 VZ=-2.089231843623746E-03
 LT= 5.661964819861986E-02 RG= 9.803388189494751E+00 RR=-1.180934775159450E-03
2456350.500000000 = A.D. 2013-Feb-27 00:00:00.0000 TDB 
 X =-7.916295058348895E+00 Y =-5.774529298746849E+00 Z = 4.139020684022775E-01
 VX=-1.887671497287488E-03 VY=-4.593752497095839E-03 VZ= 4.633415382051222E-04
 LT= 5.664256415022630E-02 RG= 9.807355963518027E+00 RR= 4.248025778553422E-03
2456360.500000000 = A.D. 2013-Mar-09 00:00:00.0000 TDB 
 X =-7.889555892250746E+00 Y =-5.822109462116160E+00 Z = 4.150801441745494E-01
 VX= 2.190830509011618E-03 VY=-8.758170568897321E-03 VZ= 2.233365393585813E-03
 LT= 5.668086225133194E-02 RG= 9.813987074166084E+00 RR= 3.528980969359589E-03
2456370.500000000 = A.D. 2013-Mar-19 00:00:00.0000 TDB 
 X =-7.857226557682828E+00 Y =-5.870525092592332E+00 Z = 4.162606402366782E-01
 VX= 7.535868662573696E-03 VY=-6.346992832606692E-03 VZ= 4.896328455221596E-04
 LT= 5.669792751797126E-02 RG= 9.816941833489837E+00 RR=-2.215255238501673E-03
